OBJECT_NAME,OBJECT_ID,EPOCH,MEAN_MOTION,ECCENTRICITY,INCLINATION,RA_OF_ASC_NODE,ARG_OF_PERICENTER,MEAN_ANOMALY,EPHEMERIS_TYPE,CLASSIFICATION_TYPE,NORAD_CAT_ID,ELEMENT_SET_NO,REV_AT_EPOCH,BSTAR,MEAN_MOTION_DOT,MEAN_MOTION_DDOT
SAUDISAT 1C (SO-50),2002-058C,2026-07-22T03:38:43.123200,14.83108446,.00743076,64.5522,20.7986,256.0137,103.2699,0,U,27607,999,26964,.1088751E-3,.775E-5,0
SAUDISAT 2,2004-025F,2026-07-22T06:23:35.877408,14.56700985,.00245169,98.5525,204.1577,186.1392,173.9509,0,U,28371,999,17085,.5322458E-4,.189E-5,0
SAUDISAT 3,2007-012B,2026-07-21T19:17:11.070240,14.71442858,.00158826,98.1470,153.2305,115.1779,245.1077,0,U,31118,999,3283,.37680351E-4,.183E-5,0
PISAT,2016-059B,2026-07-22T05:20:54.935520,14.69038768,.00305832,97.8195,202.1733,93.4388,267.0317,0,U,41784,999,52488,.13879679E-3,.773E-5,0
FLYING LAPTOP,2017-042G,2026-07-22T07:28:38.311392,15.01342161,.00192558,97.4845,357.5308,9.8571,350.3028,0,U,42831,999,49172,.18034143E-3,.2273E-4,0
SALSAT,2020-068K,2026-07-22T00:05:06.375264,15.30238203,.00099248,97.8867,208.2016,169.3819,190.7631,0,U,46495,999,32068,.25647661E-3,.7429E-4,0
