SAUDISAT 1C (SO-50)     
1 27607U 02058C   26203.15188800  .00000775  00000+0  10888-3 0  9997
2 27607  64.5522  20.7986 0074307 256.0137 103.2699 14.83108446269641
SAUDISAT 2              
1 28371U 04025F   26203.26638747  .00000189  00000+0  53225-4 0  9996
2 28371  98.5525 204.1577 0024516 186.1392 173.9509 14.56700985170851
SAUDISAT 3              
1 31118U 07012B   26202.80360035  .00000183  00000+0  37680-4 0  9990
2 31118  98.1470 153.2305 0015882 115.1779 245.1077 14.71442858 32835
PISAT                   
1 41784U 16059B   26203.22285805  .00000773  00000+0  13880-3 0  9999
2 41784  97.8195 202.1733 0030583  93.4388 267.0317 14.69038768524882
FLYING LAPTOP           
1 42831U 17042G   26203.31155453  .00002273  00000+0  18034-3 0  9994
2 42831  97.4845 357.5308 0019255   9.8571 350.3028 15.01342161491728
SALSAT                  
1 46495U 20068K   26203.00354601  .00007429  00000+0  25648-3 0  9995
2 46495  97.8867 208.2016 0009924 169.3819 190.7631 15.30238203320688
